NORAD_CAT_ID,OBJECT_NAME,OBJECT_TYPE,EPOCH,MEAN_MOTION,ECCENTRICITY,INCLINATION,RA_OF_ASC_NODE,ARG_OF_PERICENTER,MEAN_ANOMALY,BSTAR,MEAN_MOTION_DOT,MEAN_MOTION_DDOT,TLE_LINE0,TLE_LINE1,TLE_LINE2,SEMIMAJOR_AXIS,PERIOD,APOGEE,PERIGEE,DECAYED
56807.0,STARLINK-6073,PAYLOAD,2024-04-15 21:27:16,14.98320265,0.0002572,70.0007,271.0653,261.8665,98.2202,-2.0905e-05,-3.42e-06,0.0,0 STARLINK-6073,1 56807U 23078AS  24106.89393839 -.00000342  00000-0 -20905-4 0  9992,2 56807  70.0007 271.0653 0002572 261.8665  98.2202 14.98320265 49406,6950.223,96.108,573.876,570.3,0.0
56807.0,STARLINK-6073,PAYLOAD,2024-04-16 11:52:27,14.98335587,0.0003177,69.9992,269.5489,273.5005,86.5791,1.7891e-05,1.2e-06,0.0,0 STARLINK-6073,1 56807U 23078AS  24107.49476704  .00000120  00000-0  17891-4 0  9994,2 56807  69.9992 269.5489 0003177 273.5005  86.5791 14.98335587 49759,6950.176,96.107,574.249,569.833,0.0
56807.0,STARLINK-6073,PAYLOAD,2024-04-16 13:28:35,14.98337292,0.0003097,69.9992,269.3803,273.8531,86.2274,4.2475e-05,4.14e-06,0.0,0 STARLINK-6073,1 56807U 23078AS  24107.56152519  .00000414  00000-0  42475-4 0  9999,2 56807  69.9992 269.3803 0003097 273.8531  86.2274 14.98337292 49506,6950.17,96.107,574.188,569.883,0.0
56807.0,STARLINK-6073,PAYLOAD,2024-04-16 19:53:06,14.98369319,0.0003021,70.0002,268.7081,269.3524,90.7289,-0.00029457,-3.61e-05,0.0,0 STARLINK-6073,1 56807U 23078AS  24107.82855005 -.00003610  00000-0 -29457-3 0  9995,2 56807  70.0002 268.7081 0003021 269.3524  90.7289 14.98369319 49805,6950.071,96.104,574.036,569.837,0.0
56807.0,STARLINK-6073,PAYLOAD,2024-04-17 11:54:29,14.98323559,0.0003363,69.9994,267.0242,270.0659,90.0115,-2.8712e-05,-4.36e-06,0.0,0 STARLINK-6073,1 56807U 23078AS  24108.49617272 -.00000436  00000-0 -28712-4 0  9998,2 56807  69.9994 267.0242 0003363 270.0659  90.0115 14.98323559 49908,6950.213,96.107,574.415,569.74,0.0
56807.0,STARLINK-6073,PAYLOAD,2024-04-17 13:30:37,14.98321865,0.0003348,69.9993,266.8566,268.4115,91.6661,-3.373e-05,-4.95e-06,0.0,0 STARLINK-6073,1 56807U 23078AS  24108.56293401 -.00000495  00000-0 -33730-4 0  9991,2 56807  69.9993 266.8566 0003348 268.4115  91.6661 14.98321865 49657,6950.218,96.108,574.41,569.756,0.0
56807.0,STARLINK-6073,PAYLOAD,2024-04-17 19:55:09,14.98323488,0.0003049,69.9997,266.1831,262.0825,97.9988,-2.2411e-05,-3.6e-06,0.0,0 STARLINK-6073,1 56807U 23078AS  24108.82997333 -.00000360  00000-0 -22411-4 0  9990,2 56807  69.9997 266.1831 0003049 262.0825  97.9988 14.98323488 49693,6950.213,96.107,574.197,569.959,0.0
56807.0,STARLINK-6073,PAYLOAD,2024-04-18 11:56:30,14.98333185,0.0003019,69.9997,264.5005,264.6722,95.4093,-8.4446e-05,-1.101e-05,0.0,0 STARLINK-6073,1 56807U 23078AS  24109.49756995 -.00001101  00000-0 -84446-4 0  9991,2 56807  69.9997 264.5005 0003019 264.6722  95.4093 14.98333185 50056,6950.183,96.107,574.146,569.95,0.0
56807.0,STARLINK-6073,PAYLOAD,2024-04-18 13:32:38,14.98333558,0.0003011,69.9998,264.3322,264.6961,95.3855,-8.0718e-05,-1.056e-05,0.0,0 STARLINK-6073,1 56807U 23078AS  24109.56432946 -.00001056  00000-0 -80718-4 0  9993,2 56807  69.9998 264.3322 0003011 264.6961  95.3855 14.98333558 49804,6950.182,96.107,574.14,569.954,0.0
56807.0,STARLINK-6073,PAYLOAD,2024-04-18 19:57:10,14.98332986,0.0003243,70.0,263.6587,261.7525,98.3266,-5.2485e-05,-7.19e-06,0.0,0 STARLINK-6073,1 56807U 23078AS  24109.83136634 -.00000719  00000-0 -52485-4 0  9993,2 56807  70.0000 263.6587 0003243 261.7525  98.3266 14.98332986 49844,6950.184,96.107,574.303,569.795,0.0
56807.0,STARLINK-6073,PAYLOAD,2024-04-19 11:58:30,14.98322391,0.0002973,70.001,261.9756,262.6409,97.4412,0.00012022,1.341e-05,0.0,0 STARLINK-6073,1 56807U 23078AS  24110.49896785  .00001341  00000-0  12022-3 0  9999,2 56807  70.0010 261.9756 0002973 262.6409  97.4412 14.98322391 50208,6950.216,96.107,574.148,570.015,0.0
56807.0,STARLINK-6073,PAYLOAD,2024-04-19 13:34:38,14.98322426,0.0002729,70.0009,261.8078,253.948,106.1379,0.0001072,1.186e-05,0.0,0 STARLINK-6073,1 56807U 23078AS  24110.56572850  .00001186  00000-0  10720-3 0  9991,2 56807  70.0009 261.8078 0002729 253.9480 106.1379 14.98322426 49952,6950.216,96.107,573.978,570.185,0.0
56807.0,STARLINK-6073,PAYLOAD,2024-04-19 19:59:10,14.98331249,0.0002657,70.0008,261.1361,253.7198,106.3668,0.00014058,1.585e-05,0.0,0 STARLINK-6073,1 56807U 23078AS  24110.83276203  .00001585  00000-0  14058-3 0  9995,2 56807  70.0008 261.1361 0002657 253.7198 106.3668 14.98331249 50254,6950.189,96.107,573.901,570.207,0.0
56807.0,STARLINK-6073,PAYLOAD,2024-04-20 12:00:32,14.98314852,0.0003249,70.0012,259.4514,276.9895,83.0895,-0.00026272,-3.225e-05,0.0,0 STARLINK-6073,1 56807U 23078AS  24111.50037347 -.00003225  00000-0 -26272-3 0  9990,2 56807  70.0012 259.4514 0003249 276.9895  83.0895 14.98314852 50353,6950.24,96.108,574.363,569.847,0.0
56807.0,STARLINK-6073,PAYLOAD,2024-04-20 13:36:40,14.98312196,0.0002742,70.0011,259.2829,257.7586,102.3266,-0.00029948,-3.663e-05,0.0,0 STARLINK-6073,1 56807U 23078AS  24111.56713507 -.00003663  00000-0 -29948-3 0  9994,2 56807  70.0011 259.2829 0002742 257.7586 102.3266 14.98312196 50109,6950.248,96.108,574.019,570.207,0.0
56807.0,STARLINK-6073,PAYLOAD,2024-04-20 20:01:13,14.98300842,0.0002818,70.001,258.6099,256.3103,103.7743,-0.00040802,-4.954e-05,0.0,0 STARLINK-6073,1 56807U 23078AS  24111.83418855 -.00004954  00000-0 -40802-3 0  9998,2 56807  70.0010 258.6099 0002818 256.3103 103.7743 14.98300842 50407,6950.283,96.109,574.107,570.189,0.0
56807.0,STARLINK-6073,PAYLOAD,2024-04-21 13:38:42,14.9831462,0.0002245,70.0019,256.758,260.3449,99.7457,-0.00012528,-1.587e-05,0.0,0 STARLINK-6073,1 56807U 23078AS  24112.56854245 -.00001587  00000-0 -12528-3 0  9999,2 56807  70.0019 256.7580 0002245 260.3449  99.7457 14.98314620 50250,6950.24,96.108,573.666,570.545,0.0
56807.0,STARLINK-6073,PAYLOAD,2024-04-21 20:03:13,14.98326282,0.0002554,70.001,256.0845,267.2994,92.7873,9.228e-06,1.7e-07,0.0,0 STARLINK-6073,1 56807U 23078AS  24112.83557250  .00000017  00000-0  92280-5 0  9995,2 56807  70.0010 256.0845 0002554 267.2994  92.7873 14.98326282 50557,6950.204,96.107,573.844,570.294,0.0
56807.0,STARLINK-6073,PAYLOAD,2024-04-22 10:28:25,14.98347687,0.000251,70.0001,254.5707,259.8103,100.2774,-0.000314,-3.839e-05,0.0,0 STARLINK-6073,1 56807U 23078AS  24113.43640655 -.00003839  00000-0 -31400-3 0  9996,2 56807  70.0001 254.5707 0002510 259.8103 100.2774 14.98347687 50645,6950.138,96.106,573.748,570.259,0.0
56807.0,STARLINK-6073,PAYLOAD,2024-04-22 18:29:05,14.98318199,0.0002452,70.001,253.7285,253.976,106.1129,0.00027505,3.189e-05,0.0,0 STARLINK-6073,1 56807U 23078AS  24113.77020764  .00003189  00000-0  27505-3 0  9993,2 56807  70.0010 253.7285 0002452 253.9760 106.1129 14.98318199 50696,6950.229,96.108,573.799,570.39,0.0
56807.0,STARLINK-6073,PAYLOAD,2024-04-23 13:42:43,14.98326324,0.0002466,70.0014,251.7086,256.6247,103.4637,7.6181e-05,8.16e-06,0.0,0 STARLINK-6073,1 56807U 23078AS  24114.57133285  .00000816  00000-0  76181-4 0  9994,2 56807  70.0014 251.7086 0002466 256.6247 103.4637 14.98326324 50550,6950.204,96.107,573.783,570.355,0.0
56807.0,STARLINK-6073,PAYLOAD,2024-04-23 18:31:06,14.98349565,0.0003117,69.9996,251.2017,270.2757,89.8045,-5.0131e-05,-6.91e-06,0.0,0 STARLINK-6073,1 56807U 23078AS  24114.77160126 -.00000691  00000-0 -50131-4 0  9990,2 56807  69.9996 251.2017 0003117 270.2757  89.8045 14.98349565 50841,6950.132,96.106,574.164,569.831,0.0
56807.0,STARLINK-6073,PAYLOAD,2024-04-24 12:08:35,14.98332619,0.000307,70.0005,249.3512,269.279,90.8017,-5.0398e-05,-6.94e-06,0.0,0 STARLINK-6073,1 56807U 23078AS  24115.50597061 -.00000694  00000-0 -50398-4 0  9992,2 56807  70.0005 249.3512 0003070 269.2790  90.8017 14.98332619 50951,6950.185,96.107,574.183,569.916,0.0
56807.0,STARLINK-6073,PAYLOAD,2024-04-24 13:44:43,14.98335763,0.0002805,70.0009,249.1831,260.5341,99.5501,-8.8321e-06,-1.98e-06,0.0,0 STARLINK-6073,1 56807U 23078AS  24115.57272709 -.00000198  00000-0 -88321-5 0  9995,2 56807  70.0009 249.1831 0002805 260.5341  99.5501 14.98335763 50708,6950.175,96.107,573.99,570.091,0.0
56807.0,STARLINK-6073,PAYLOAD,2024-04-24 18:33:07,14.98340944,0.0002744,70.001,248.6783,258.9537,101.1314,5.0004e-05,5.04e-06,0.0,0 STARLINK-6073,1 56807U 23078AS  24115.77300151  .00000504  00000-0  50004-4 0  9995,2 56807  70.0010 248.6783 0002744 258.9537 101.1314 14.98340944 50990,6950.159,96.106,573.931,570.117,0.0
56807.0,STARLINK-6073,PAYLOAD,2024-04-25 12:10:36,14.98330397,0.0002586,70.0015,246.8264,265.9761,94.1103,-4.0272e-05,-5.73e-06,0.0,0 STARLINK-6073,1 56807U 23078AS  24116.50736970 -.00000573  00000-0 -40272-4 0  9993,2 56807  70.0015 246.8264 0002586 265.9761  94.1103 14.98330397 51102,6950.192,96.107,573.854,570.259,0.0
56807.0,STARLINK-6073,PAYLOAD,2024-04-25 13:46:44,14.98328602,0.0002696,70.0009,246.6579,267.3147,92.7703,-4.0263e-05,-5.73e-06,0.0,0 STARLINK-6073,1 56807U 23078AS  24116.57413075 -.00000573  00000-0 -40263-4 0  9998,2 56807  70.0009 246.6579 0002696 267.3147  92.7703 14.98328602 50855,6950.197,96.107,573.936,570.188,0.0
56807.0,STARLINK-6073,PAYLOAD,2024-04-25 18:35:08,14.98336473,0.0002977,70.0006,246.1537,265.5823,94.4996,4.5615e-05,4.51e-06,0.0,0 STARLINK-6073,1 56807U 23078AS  24116.77440239  .00000451  00000-0  45615-4 0  9991,2 56807  70.0006 246.1537 0002977 265.5823  94.4996 14.98336473 51145,6950.173,96.107,574.107,569.969,0.0
56807.0,STARLINK-6073,PAYLOAD,2024-04-26 13:48:45,14.98335571,0.0002532,70.0019,244.1348,255.2968,104.791,-2.1335e-05,-3.47e-06,0.0,0 STARLINK-6073,1 56807U 23078AS  24117.57552311 -.00000347  00000-0 -21335-4 0  9994,2 56807  70.0019 244.1348 0002532 255.2968 104.7910 14.98335571 51004,6950.176,96.107,573.8,570.281,0.0
56807.0,STARLINK-6073,PAYLOAD,2024-04-26 18:37:08,14.98341074,0.0002565,70.0018,243.63,258.9372,101.1498,6.7217e-05,7.09e-06,0.0,0 STARLINK-6073,1 56807U 23078AS  24117.77579575  .00000709  00000-0  67217-4 0  9996,2 56807  70.0018 243.6300 0002565 258.9372 101.1498 14.98341074 51030,6950.159,96.106,573.806,570.241,0.0
